STARLINK-32490          
1 62126U 24222N   24341.91668981 -.00958476  00000+0 -43263-2 0  9991
2 62126  43.0015 213.7415 0001802 282.0470 211.8652 15.85351963  2608
STARLINK-32557          
1 62127U 24222P   24341.91668981 -.00515211  90710-4 -15612-2 0  9997
2 62127  43.0013 213.5785 0002020 279.0882 279.5798 15.91081749  2657
STARLINK-32568          
1 62128U 24222Q   24341.91668981 -.00972627  00000+0 -43820-2 0  9996
2 62128  43.0012 213.7305 0001759 282.3541 215.8548 15.85424709  2346
STARLINK-32462          
1 62129U 24222R   24341.91668981 -.00986383  00000+0 -44427-2 0  9995
2 62129  43.0014 213.7249 0001825 280.8216 219.6708 15.85463178  2604
STARLINK-32463          
1 62130U 24222S   24341.91668981 -.01001590  00000+0 -45107-2 0  9992
2 62130  43.0012 213.7194 0001764 282.4453 220.2038 15.85503022  2603
STARLINK-32550          
1 62131U 24222T   24341.91668981 -.01036875  00000+0 -46726-2 0  9995
2 62131  43.0013 213.7071 0001746 282.2496 225.1667 15.85576309  2648
STARLINK-32507          
1 62132U 24222U   24341.66667824 -.00968417  00000+0 -42282-2 0  9991
2 62132  43.0015 215.2514 0001678 279.1368 236.9309 15.86054193  2407
STARLINK-32245          
1 62133U 24222V   24341.91668981 -.01047305  00000+0 -47186-2 0  9998
2 62133  43.0013 213.7014 0001652 284.9932 224.7746 15.85607310  2759
STARLINK-32546          
1 62134U 24222W   24341.91668981 -.01056331  00000+0 -47570-2 0  9995
2 62134  43.0014 213.6955 0001792 281.8290 230.2911 15.85637551  2499
STARLINK-32545          
1 62135U 24222X   24341.91668981 -.01062306  00000+0 -47820-2 0  9993
2 62135  43.0012 213.6893 0001620 282.8970 231.7886 15.85662414  2667
STARLINK-32554          
1 62136U 24222Y   24341.91668981 -.01070879  00000+0 -48090-2 0  9998
2 62136  43.0012 213.6794 0001612 285.7753 232.6681 15.85732594  2648
STARLINK-32570          
1 62137U 24222Z   24341.91668981 -.01065297  00000+0 -47874-2 0  9996
2 62137  43.0015 213.6854 0001781 280.4023 235.8072 15.85702110  2749
KONDOR-FKA NO. 2        
1 62138U 24223A   24341.88676324  .00009109  00000+0  44218-3 0  9991
2 62138  97.4398 182.5289 0002856  75.3601 284.7949 15.18691636  1066
STARLINK-32529          
1 62139U 24224A   24341.91668981 -.00838406  21786-3 -25109-2 0  9994
2 62139  43.0012 240.0166 0001503 279.3477 250.9416 15.91379126  2238
STARLINK-32464          
1 62140U 24224B   24341.91668981 -.00845379  22151-3 -25110-2 0  9992
2 62140  43.0013 240.0095 0001822 275.8039 257.3352 15.91538583  2235
STARLINK-32482          
1 62141U 24224C   24341.91668981 -.00843081  22026-3 -25140-2 0  9995
2 62141  43.0014 240.0129 0001929 272.9105 258.8410 15.91462219  2137
STARLINK-32454          
1 62142U 24224D   24341.91668981 -.00848013  22294-3 -25087-2 0  9993
2 62142  43.0011 240.0059 0001629 277.5483 257.0078 15.91617327  2294
STARLINK-32485          
1 62143U 24224E   24341.91668981 -.00850300  22422-3 -25046-2 0  9994
2 62143  43.0013 240.0022 0001689 274.9789 261.0634 15.91700941  1852
STARLINK-32388          
1 62144U 24224F   24341.91668981 -.00855358  22682-3 -25096-2 0  9996
2 62144  43.0011 239.9985 0001762 276.0084 261.3845 15.91777402  2291
STARLINK-32374          
1 62145U 24224G   24341.91668981 -.00863866  23130-3 -25137-2 0  9995
2 62145  43.0010 239.9915 0001975 271.2175 268.9803 15.91937042  2293
STARLINK-32384          
1 62146U 24224H   24341.91668981 -.00858660  22860-3 -25088-2 0  9996
2 62146  43.0011 239.9949 0001808 275.4030 263.4160 15.91858068  2299
STARLINK-32295          
1 62147U 24224J   24341.91668981 -.00864793  23193-3 -25066-2 0  9997
2 62147  43.0010 239.9880 0001804 274.8373 266.7327 15.92012698  2183
STARLINK-32479          
1 62148U 24224K   24341.91668981 -.00876682  23817-3 -25180-2 0  9998
2 62148  43.0012 239.9803 0001886 273.4297 271.1626 15.92189292  2234
STARLINK-32468          
1 62149U 24224L   24341.91668981 -.00869842  23458-3 -25108-2 0  9990
2 62149  43.0011 239.9843 0001866 274.4237 268.5438 15.92092943  2137
STARLINK-32629          
1 62150U 24224M   24341.91668981 -.00892477  24630-3 -25494-2 0  9993
2 62150  43.0010 239.9759 0002020 268.6426 277.6571 15.92296140  2293
STARLINK-32644          
1 62151U 24224N   24341.91668981 -.00918072  25982-3 -25966-2 0  9999
2 62151  43.0008 239.9677 0001892 271.2269 278.2784 15.92490823  2298
STARLINK-32623          
1 62152U 24224P   24341.91668981 -.00904210  25248-3 -25701-2 0  9991
2 62152  43.0008 239.9715 0001549 277.8241 270.1131 15.92394863  2231
STARLINK-32639          
1 62153U 24224Q   24341.91668981 -.00921674  26182-3 -25993-2 0  9996
2 62153  43.0008 239.9647 0001831 274.3435 276.2191 15.92546554  2135
STARLINK-32625          
1 62154U 24224R   24341.91668981 -.00938318  27077-3 -26331-2 0  9991
2 62154  43.0006 239.9607 0001940 270.9991 281.1406 15.92643929  2183
STARLINK-32635          
1 62155U 24224S   24341.91668981 -.00949118  27670-3 -26520-2 0  9991
2 62155  43.0006 239.9572 0001852 272.6116 280.9572 15.92727851  2138
STARLINK-32532          
1 62156U 24224T   24341.91668981 -.00960097  28282-3 -26700-2 0  9991
2 62156  43.0005 239.9530 0001812 272.4835 282.6450 15.92819980  2133
STARLINK-32503          
1 62157U 24224U   24341.91668981 -.00973684  29045-3 -26940-2 0  9992
2 62157  43.0006 239.9491 0001695 276.1221 280.6573 15.92919703  1856
STARLINK-32508          
1 62158U 24224V   24341.91668981 -.00987329  29824-3 -27162-2 0  9996
2 62158  43.0006 239.9446 0001980 267.7465 290.8290 15.93029419  2295
STARLINK-32524          
1 62159U 24224W   24341.91668981 -.00993995  30220-3 -27215-2 0  9994
2 62159  43.0006 239.9406 0001896 272.1394 288.0284 15.93121480  2135
STARLINK-32484          
1 62160U 24224X   24341.91668981 -.00997741  30450-3 -27214-2 0  9993
2 62160  43.0003 239.9375 0001887 271.1207 290.3609 15.93194087  2298
STARLINK-32497          
1 62161U 24224Y   24341.91668981 -.01003060  30791-3 -27152-2 0  9996
2 62161  43.0003 239.9305 0001637 275.4891 288.6406 15.93339529  2298
STARLINK-32526          
1 62162U 24224Z   24341.91668981 -.00999036  30543-3 -27148-2 0  9993
2 62162  43.0003 239.9343 0001910 270.8355 291.9451 15.93264704  2298
2024-226A               
1 62185U 24226A   24339.98524542 -.00000350  00000+0 -28524-3 0  9991
2 62185  50.0055 220.2886 0055901 197.7965 162.0963 13.59904972   603
2024-226B               
1 62186U 24226B   24341.89460743 -.00000412  00000+0 -36762-3 0  9999
2 62186  50.0053 213.0563 0053478 205.3233 154.5029 13.59999561   860
TJS-13                  
1 62188U 24227A   24338.80761059 -.00002550  11004-5  00000+0 0  9991
2 62188  51.0169 112.5572 7530299 225.1450  32.7351  2.00992550    09
HAISHAO-1               
1 62190U 24228A   24341.79075344  .00039060  00000+0  64696-3 0  9990
2 62190  42.9920  88.8402 0114557  78.0460  67.4417 15.44332749   331
COSMOS 2580             
1 62216U 24230A   24341.89783294 -.00000006  00000+0  49785-4 0  9995
2 62216  67.1414 325.3660 0013002 333.2465  26.7947 13.96874121   310
PROBA-3                 
1 62256U 24233A   24340.75840230  .00000041  00000+0  00000+0 0  9990
2 62256  59.2394 146.5165 8115948 188.1133 136.2510  1.22063145    06
SENTINEL-1C             
1 62261U 24235A   24340.97390383 -.00000046  00000+0  00000+0 0  9997
2 62261  98.1935 345.2508 0000286 328.3971 129.2753 14.58973033    02
2024-236A               
1 62263U 24236A   24341.26074163 -.00000693  00000+0  00000+0 0  9996
2 62263  58.5384  23.4197 0077789 159.6700 319.0868 15.71542736    24
2024-236B               
1 62264U 24236B   24341.26278471 -.00000693  00000+0  00000+0 0  9995
2 62264  58.5560  23.4110 0073472 158.3197 332.3920 15.72468313    12
BEIJING 1               
1 28890U 05043A   24341.90430853  .00001100  00000+0  22464-3 0  9997
2 28890  98.2206 103.7743 0013947 222.4122 137.6002 14.62814380 19152
HUANJING 1A (HJ-1A)     
1 33320U 08041A   24341.89809304  .00003496  00000+0  45091-3 0  9992
2 33320  97.6350 340.5824 0020141 162.0830 198.1098 14.81480022875812
HUANJING 1B (HJ-1B)     
1 33321U 08041B   24341.88914101  .00002482  00000+0  32048-3 0  9996
2 33321  97.6268 345.0080 0036761 209.1391 150.7772 14.81361232875842
YAOGAN-4                
1 33446U 08061A   24341.71910979  .00002911  00000+0  38092-3 0  9999
2 33446  97.8921 270.5432 0016394  85.2720 275.0365 14.81085278863085
DEIMOS-1                
1 35681U 09041A   24341.86667686  .00001851  00000+0  28856-3 0  9990
2 35681  97.6836 154.6958 0001686 138.8442 221.2895 14.74034366824745
UK-DMC 2                
1 35683U 09041C   24341.85766969  .00002322  00000+0  35775-3 0  9997
2 35683  97.8040 122.7751 0001049  92.0884 268.0445 14.74341927824392
DMC3-FM1                
1 40715U 15032A   24341.90754071  .00001667  00000+0  20405-3 0  9998
2 40715  97.7224 215.5749 0007257  86.7953 273.4092 14.84480802507190
DMC3-FM2                
1 40716U 15032B   24341.92985831  .00001917  00000+0  23369-3 0  9991
2 40716  97.7280 216.7824 0009090  90.5341 269.6915 14.84477691507194
DMC3-FM3                
1 40717U 15032C   24341.89781308  .00001769  00000+0  21657-3 0  9994
2 40717  97.7332 218.1097 0010512  88.5222 271.7197 14.84382242507190
NOAA 15                 
1 25338U 98030A   24341.90046350  .00000414  00000+0  18842-3 0  9996
2 25338  98.5538   5.3203 0010359 173.9345 186.1963 14.26818450381818
DMSP 5D-3 F16 (USA 172) 
1 28054U 03048A   24341.94340666  .00000393  00000+0  22981-3 0  9995
2 28054  99.0202 350.0584 0006429 287.3351 187.7462 14.14221143 90713
NOAA 18                 
1 28654U 05018A   24341.87566246  .00000466  00000+0  27108-3 0  9993
2 28654  98.8615  57.3093 0013259 294.8926  65.0868 14.13444910  7574
